OBJECT_NAME,OBJECT_ID,EPOCH,MEAN_MOTION,ECCENTRICITY,INCLINATION,RA_OF_ASC_NODE,ARG_OF_PERICENTER,MEAN_ANOMALY,EPHEMERIS_TYPE,CLASSIFICATION_TYPE,NORAD_CAT_ID,ELEMENT_SET_NO,REV_AT_EPOCH,BSTAR,MEAN_MOTION_DOT,MEAN_MOTION_DDOT
CUBEBUG-2 (LO-74),2013-066AA,2026-07-15T12:43:18.578496,14.93968410,.00556605,97.8914,145.6344,294.2114,65.3294,0,U,39440,999,68122,.19831779E-3,.2114E-4,0
FUNCUBE-1 (AO-73),2013-066AE,2026-07-15T10:12:17.507232,15.09819276,.00379911,97.8289,168.4697,106.9274,253.6125,0,U,39444,999,68392,.21582013E-3,.3479E-4,0
UWE-3,2013-066AG,2026-07-15T14:54:13.159296,14.97200799,.00475283,97.8713,152.8926,223.0802,136.6696,0,U,39446,999,68183,.17249614E-3,.1977E-4,0
UNISAT-6,2014-033C,2026-07-15T08:53:25.920096,14.88366752,.00441734,97.7908,348.5932,337.1832,22.7421,0,U,40012,999,65035,.12145461E-3,.1087E-4,0
DUCHIFAT-1,2014-033M,2026-07-15T02:33:22.918464,15.70998071,.00027596,98.0418,259.3300,247.0602,113.0368,0,U,40021,999,66012,.75655471E-3,.95423E-3,0
QB50P1,2014-033R,2026-07-15T13:14:24.385632,15.18670090,.00103554,98.0962,209.6951,123.5579,236.6643,0,U,40025,999,65733,.21798319E-3,.4446E-4,0
LILACSAT-2,2015-049K,2026-07-15T13:52:54.450336,15.52368215,.00084259,97.4622,234.5123,140.4028,219.7841,0,U,40908,999,60015,.19458057E-3,.11778E-3,0
FOX-1A (AO-85),2015-058D,2026-07-15T09:19:38.094240,14.91088896,.01323818,64.7725,191.3328,45.7352,315.4532,0,U,40967,999,11777,.15413123E-3,.1629E-4,0
CAS-2T & KS-1Q,2016-066G,2026-07-15T05:17:25.510560,14.44770328,.03422347,98.3814,271.6358,44.6853,318.1379,0,U,41847,999,50884,.81590618E-4,.522E-5,0
RADFXSAT (FOX-1B),2017-073E,2026-07-15T07:37:08.142240,15.13061529,.01482696,97.4665,62.9591,231.0626,127.7313,0,U,43017,999,46964,.1907758E-3,.4345E-4,0
DIWATA-2B,2018-084H,2026-07-15T13:51:54.673632,15.00564620,.0012817,98.1211,34.0292,83.3288,276.9392,0,U,43678,999,42047,.10116815E-3,.1213E-4,0
ES'HAIL 2,2018-090A,2026-07-15T13:29:29.480928,1.00271094,.00022125,0.0171,47.4652,111.6490,2.4404,0,U,43700,999,2796,0,.134E-5,0
FOX-1CLIFF (AO-95),2018-099N,2026-07-15T02:59:13.155648,15.27272459,.00072493,97.4371,256.2762,240.1261,119.9258,0,U,43770,999,41748,.24320994E-3,.6428E-4,0
ITASAT,2018-099AE,2026-07-15T03:30:16.767360,15.19381680,.00108688,97.4013,247.1033,250.6070,109.3990,0,U,43786,999,41715,.17427244E-3,.3624E-4,0
JY1SAT (JO-97),2018-099AX,2026-07-15T03:26:29.420448,15.34518700,.00069124,97.4123,259.0882,158.3405,201.8132,0,U,43803,999,41791,.29989453E-3,.9957E-4,0
UWE-4,2018-111E,2026-07-15T08:27:21.725856,15.47824446,.00062889,97.5850,126.0767,193.5981,166.5100,0,U,43880,999,41513,.39288701E-3,.2035E-3,0
TIANYAN 01,2019-093C,2026-07-15T14:02:10.836960,14.86561120,.00136026,97.7529,268.1232,0.4789,359.6438,0,U,44881,999,35563,.23057664E-4,.151E-5,0
RS-44 & BREEZE-KM R/B,2019-096E,2026-07-15T09:14:02.263488,12.79748928,.02185328,82.5242,320.9683,78.5502,284.0054,0,U,44909,999,30595,-.47910223E-4,.1E-7,0
SALSAT,2020-068K,2026-07-15T11:08:34.478880,15.30174422,.00092137,97.8855,201.2595,191.9024,168.1999,0,U,46495,999,31968,.14152956E-3,.4051E-4,0
XW-3 (CAS-9),2021-131B,2026-07-15T14:03:18.850176,14.41381915,.00045652,98.4994,288.8222,29.4904,330.6542,0,U,50466,999,23920,.75294282E-4,.2E-5,0
GREENCUBE (IO-117),2022-080E,2026-07-15T04:46:20.871552,6.42583355,.00090693,70.1411,288.5050,283.3508,76.6141,0,U,53109,999,9386,0,-.3E-7,0
UMKA 1 (RS40S),2023-091G,2026-07-15T13:56:02.251968,15.21124587,.00130222,97.5036,255.1718,28.3181,331.8760,0,U,57172,999,16832,.16039997E-3,.3506E-4,0
CUBESX-HSE 3 (RS42S),2023-091N,2026-07-15T14:15:52.137216,15.31890977,.00096118,97.5079,262.5519,0.6534,359.4718,0,U,57178,999,16877,.25706625E-3,.7846E-4,0
MONITOR-3 (RS58S),2023-091Q,2026-07-15T14:48:58.752288,15.28378315,.00109527,97.5069,260.2803,8.2306,351.9111,0,U,57180,999,16863,.21672717E-3,.5921E-4,0
MONITOR-4 (RS57S),2023-091S,2026-07-15T14:16:32.409984,15.28464710,.00109398,97.5063,260.2303,8.7482,351.3946,0,U,57182,999,16863,.22760708E-3,.6239E-4,0
MONITOR-2 (RS39S),2023-091U,2026-07-15T13:43:56.082432,15.19156802,.00113687,97.5057,254.6735,22.8834,337.2905,0,U,57184,999,16826,.13290504E-3,.2728E-4,0
SVYATOBOR 1 (RS60S),2023-091X,2026-07-15T13:37:20.622720,15.27067617,.00087056,97.5076,260.5481,3.1771,356.9522,0,U,57187,999,16864,.19348886E-3,.5067E-4,0
VIZARD-METEO (RS38S),2023-091Z,2026-07-15T14:35:09.682080,15.36883663,.00056117,97.5080,266.6781,337.9562,22.1439,0,U,57189,999,16905,.28763755E-3,.10295E-3,0
POLYTECH-UNIVERSE 3 (RS46S),2023-091AB,2026-07-15T14:17:31.760736,15.19369300,.00160379,97.5034,254.2009,36.3873,323.8448,0,U,57191,999,16826,.12999865E-3,.2688E-4,0
UTMN 2 (RS27S),2023-091AP,2026-07-15T14:19:09.408288,15.32708708,.00066806,97.5075,264.2224,348.7449,11.3643,0,U,57203,999,16889,.25043854E-3,.7835E-4,0
