CUBEBUG-2 (LO-74)
1 39440U 13066AA  26196.53007614  .00002114  00000-0  19832-3 0  9990
2 39440  97.8914 145.6344 0055661 294.2114  65.3294 14.93968410681226
FUNCUBE-1 (AO-73)
1 39444U 13066AE  26196.42520263  .00003479  00000-0  21582-3 0  9992
2 39444  97.8289 168.4697 0037991 106.9274 253.6125 15.09819276683928
UWE-3
1 39446U 13066AG  26196.62098564  .00001977  00000-0  17250-3 0  9998
2 39446  97.8713 152.8926 0047528 223.0802 136.6696 14.97200799681830
UNISAT-6
1 40012U 14033C   26196.37043889  .00001087  00000-0  12145-3 0  9996
2 40012  97.7908 348.5932 0044173 337.1832  22.7421 14.88366752650356
DUCHIFAT-1
1 40021U 14033M   26196.10651526  .00095423  00000-0  75655-3 0  9992
2 40021  98.0418 259.3300 0002760 247.0602 113.0368 15.70998071660121
LILACSAT-2
1 40908U 15049K   26196.57840799  .00011778  00000-0  19458-3 0  9997
2 40908  97.4622 234.5123 0008426 140.4028 219.7841 15.52368215600154
CAS-2T & KS-1Q
1 41847U 16066G   26196.22043415  .00000522  00000-0  81591-4 0  9995
2 41847  98.3814 271.6358 0342235  44.6853 318.1379 14.44770328508847
FOX-1B (AO-91)
1 43017U 17073E   26196.31745535  .00004345  00000-0  19078-3 0  9994
2 43017  97.4665  62.9591 0148270 231.0626 127.7313 15.13061529469644
FUNCUBE-3 (EO-79)/QB50P1
1 40025U 14033R   26196.55167113  .00004446  00000-0  21798-3 0  9993
2 40025  98.0962 209.6951 0010355 123.5579 236.6643 15.18670090657336
FOX-1A (AO-85)
1 40967U 15058D   26196.38863535  .00001629  00000-0  15413-3 0  9995
2 40967  64.7725 191.3328 0132382  45.7352 315.4532 14.91088896117771
DIWATA-2B (PO-101)
1 43678U 18084H   26196.57771613  .00001213  00000-0  10117-3 0  9990
2 43678  98.1211  34.0292 0012817  83.3288 276.9392 15.00564620420477
ESHAIL-2
1 43700U 18090A   26196.56214677  .00000134  00000-0  00000-0 0  9992
2 43700   0.0171  47.4652 0002212 111.6490   2.4404  1.00271094 27964
ITASAT-1
1 43786U 18099AE  26196.14602740  .00003624  00000-0  17427-3 0  9992
2 43786  97.4013 247.1033 0010869 250.6070 109.3990 15.19381680417159
FOX-1CLIFF (AO-95)
1 43770U 18099N   26196.12445782  .00006428  00000-0  24321-3 0  9990
2 43770  97.4371 256.2762 0007249 240.1261 119.9258 15.27272459417485
JY1SAT (JO-97)
1 43803U 18099AX  26196.14339607  .00009957  00000-0  29989-3 0  9992
2 43803  97.4123 259.0882 0006912 158.3405 201.8132 15.34518700417917
UWE-4
1 43880U 18111E   26196.35233479  .00020350  00000-0  39289-3 0  9999
2 43880  97.5850 126.0767 0006289 193.5981 166.5100 15.47824446415137
CAS-6 (TO-108)
1 44881U 19093C   26196.58484765  .00000151  00000-0  23058-4 0  9997
2 44881  97.7529 268.1232 0013603   0.4789 359.6438 14.86561120355635
DOSAAF-85 (RS-44)
1 44909U 19096E   26196.38474842  .00000001  00000-0 -47910-4 0  9992
2 44909  82.5242 320.9683 0218533  78.5502 284.0054 12.79748928305953
SALSAT (TUBSAT 22)
1 46495U 20068K   26196.46428795  .00004051  00000-0  14153-3 0  9990
2 46495  97.8855 201.2595 0009214 191.9024 168.1999 15.30174422319687
CAMSAT XW-3 (CAS-9)
1 50466U 21131B   26196.58563484  .00000200  00000-0  75294-4 0  9999
2 50466  98.4994 288.8222 0004565  29.4904 330.6542 14.41381915239202
ROBUSTA 1F (MTCUBE-2)
1 53109U 22080E   26196.19885268 -.00000003  00000-0  00000-0 0  9995
2 53109  70.1411 288.5050 0009069 283.3508  76.6141  6.42583355 93867
UMKA-1 (RS40S)
1 57172U 23091G   26196.58058162  .00003506  00000-0  16040-3 0  9994
2 57172  97.5036 255.1718 0013022  28.3181 331.8760 15.21124587168328
CUBESX-HSE-3 (RS42S)
1 57178U 23091N   26196.59435344  .00007846  00000-0  25707-3 0  9993
2 57178  97.5079 262.5519 0009612   0.6534 359.4718 15.31890977168779
MONITOR-3 (RS58S)
1 57180U 23091Q   26196.61734667  .00005921  00000-0  21673-3 0  9999
2 57180  97.5069 260.2803 0010953   8.2306 351.9111 15.28378315168635
MONITOR-4 (RS57S)
1 57182U 23091S   26196.59481956  .00006239  00000-0  22761-3 0  9990
2 57182  97.5063 260.2303 0010940   8.7482 351.3946 15.28464710168637
MONITOR-2 (RS39S)
1 57184U 23091U   26196.57217688  .00002728  00000-0  13291-3 0  9996
2 57184  97.5057 254.6735 0011369  22.8834 337.2905 15.19156802168269
SVYATOBOR-1 (RS60S)
1 57187U 23091X   26196.56759980  .00005067  00000-0  19349-3 0  9993
2 57187  97.5076 260.5481 0008706   3.1771 356.9522 15.27067617168649
VIZARD-METEO (RS38S)
1 57189U 23091Z   26196.60775095  .00010295  00000-0  28764-3 0  9995
2 57189  97.5080 266.6781 0005612 337.9562  22.1439 15.36883663169057
UTMN-2 (RS27S)
1 57203U 23091AP  26196.59663667  .00007835  00000-0  25044-3 0  9995
2 57203  97.5075 264.2224 0006681 348.7449  11.3643 15.32708708168895
POLYTECH UNIVERSE-3 (RS46S)
1 57191U 23091AB  26196.59550649  .00002688  00000-0  13000-3 0  9996
2 57191  97.5034 254.2009 0016038  36.3873 323.8448 15.19369300168265
